[{"OBJECT_NAME":"STARLINK-35253","OBJECT_ID":"2025-207E","EPOCH":"2026-03-09T17:20:40.173216","MEAN_MOTION":15.05646937,"ECCENTRICITY":8.177e-5,"INCLINATION":97.6021,"RA_OF_ASC_NODE":138.6522,"ARG_OF_PERICENTER":118.2421,"MEAN_ANOMALY":241.8889,"EPHEMERIS_TYPE":0,"CLASSIFICATION_TYPE":"U","NORAD_CAT_ID":65596,"ELEMENT_SET_NO":999,"REV_AT_EPOCH":2805,"BSTAR":0.0001116541,"MEAN_MOTION_DOT":1.551e-5,"MEAN_MOTION_DDOT":0},{"OBJECT_NAME":"CZ-6A DEB","OBJECT_ID":"2024-140XA","EPOCH":"2026-03-09T13:38:46.141440","MEAN_MOTION":14.97207457,"ECCENTRICITY":0.0079782,"INCLINATION":88.8472,"RA_OF_ASC_NODE":268.9899,"ARG_OF_PERICENTER":170.4337,"MEAN_ANOMALY":189.8439,"EPHEMERIS_TYPE":0,"CLASSIFICATION_TYPE":"U","NORAD_CAT_ID":61385,"ELEMENT_SET_NO":999,"REV_AT_EPOCH":8131,"BSTAR":0.0034461,"MEAN_MOTION_DOT":0.00042743,"MEAN_MOTION_DDOT":0}]
